[{"OBJECT_NAME":"STARLINK-30995","OBJECT_ID":"2023-186B","EPOCH":"2026-03-14T22:58:20.155008","MEAN_MOTION":16.08447727,"ECCENTRICITY":0.00199016,"INCLINATION":42.9739,"RA_OF_ASC_NODE":185.5122,"ARG_OF_PERICENTER":3.0665,"MEAN_ANOMALY":357.0335,"EPHEMERIS_TYPE":0,"CLASSIFICATION_TYPE":"U","NORAD_CAT_ID":58474,"ELEMENT_SET_NO":999,"REV_AT_EPOCH":12926,"BSTAR":0.0024332054,"MEAN_MOTION_DOT":0.02102812,"MEAN_MOTION_DDOT":0.0037642588},{"OBJECT_NAME":"INTUITION-1","OBJECT_ID":"2023-174CW","EPOCH":"2026-03-15T06:49:49.772640","MEAN_MOTION":16.03897123,"ECCENTRICITY":0.00047829,"INCLINATION":97.3659,"RA_OF_ASC_NODE":171.2645,"ARG_OF_PERICENTER":267.9023,"MEAN_ANOMALY":92.171,"EPHEMERIS_TYPE":0,"CLASSIFICATION_TYPE":"U","NORAD_CAT_ID":58565,"ELEMENT_SET_NO":999,"REV_AT_EPOCH":13177,"BSTAR":0.0013431585,"MEAN_MOTION_DOT":0.00849328,"MEAN_MOTION_DDOT":0.00036621328},{"OBJECT_NAME":"STARLINK-31145","OBJECT_ID":"2024-011D","EPOCH":"2026-03-15T02:53:11.021280","MEAN_MOTION":16.06013218,"ECCENTRICITY":0.00081728,"INCLINATION":53.1186,"RA_OF_ASC_NODE":334.0904,"ARG_OF_PERICENTER":159.5192,"MEAN_ANOMALY":200.6171,"EPHEMERIS_TYPE":0,"CLASSIFICATION_TYPE":"U","NORAD_CAT_ID":58768,"ELEMENT_SET_NO":999,"REV_AT_EPOCH":12129,"BSTAR":0.0011780717,"MEAN_MOTION_DOT":0.00882079,"MEAN_MOTION_DDOT":0.00041896561},{"OBJECT_NAME":"SENTRY","OBJECT_ID":"2024-043AU","EPOCH":"2026-03-15T03:38:08.094912","MEAN_MOTION":16.01080816,"ECCENTRICITY":0.00047924,"INCLINATION":97.5276,"RA_OF_ASC_NODE":229.1652,"ARG_OF_PERICENTER":266.9421,"MEAN_ANOMALY":93.1309,"EPHEMERIS_TYPE":0,"CLASSIFICATION_TYPE":"U","NORAD_CAT_ID":59140,"ELEMENT_SET_NO":999,"REV_AT_EPOCH":11393,"BSTAR":0.0013821557,"MEAN_MOTION_DOT":0.00742585,"MEAN_MOTION_DDOT":0.00026048934},{"OBJECT_NAME":"OBJECT B","OBJECT_ID":"2024-085B","EPOCH":"2026-03-14T01:16:30.705888","MEAN_MOTION":16.08100851,"ECCENTRICITY":0.00147927,"INCLINATION":97.3337,"RA_OF_ASC_NODE":165.9181,"ARG_OF_PERICENTER":295.9669,"MEAN_ANOMALY":64.009,"EPHEMERIS_TYPE":0,"CLASSIFICATION_TYPE":"U","NORAD_CAT_ID":59678,"ELEMENT_SET_NO":999,"REV_AT_EPOCH":10411,"BSTAR":0.0014511063,"MEAN_MOTION_DOT":0.01193912,"MEAN_MOTION_DDOT":0.00086695227},{"OBJECT_NAME":"OBJECT D","OBJECT_ID":"2024-095D","EPOCH":"2026-03-11T10:45:42.153984","MEAN_MOTION":16.02763372,"ECCENTRICITY":0.0007283,"INCLINATION":97.5273,"RA_OF_ASC_NODE":174.9254,"ARG_OF_PERICENTER":274.6865,"MEAN_ANOMALY":85.3582,"EPHEMERIS_TYPE":0,"CLASSIFICATION_TYPE":"U","NORAD_CAT_ID":59813,"ELEMENT_SET_NO":999,"REV_AT_EPOCH":10117,"BSTAR":0.001914,"MEAN_MOTION_DOT":0.01128541,"MEAN_MOTION_DDOT":0.00068436},{"OBJECT_NAME":"COSMOS 2591","OBJECT_ID":"2025-182A","EPOCH":"2026-03-14T22:54:01.336032","MEAN_MOTION":15.96418188,"ECCENTRICITY":0.00095833,"INCLINATION":96.5871,"RA_OF_ASC_NODE":7.0861,"ARG_OF_PERICENTER":142.9225,"MEAN_ANOMALY":217.2717,"EPHEMERIS_TYPE":0,"CLASSIFICATION_TYPE":"U","NORAD_CAT_ID":65267,"ELEMENT_SET_NO":999,"REV_AT_EPOCH":3266,"BSTAR":0.00026910054,"MEAN_MOTION_DOT":0.00111781,"MEAN_MOTION_DDOT":6.625088e-6},{"OBJECT_NAME":"COSMOS 2592","OBJECT_ID":"2025-182B","EPOCH":"2026-03-15T05:17:38.683104","MEAN_MOTION":15.96346413,"ECCENTRICITY":0.00091382,"INCLINATION":96.5869,"RA_OF_ASC_NODE":7.2984,"ARG_OF_PERICENTER":141.5909,"MEAN_ANOMALY":218.6021,"EPHEMERIS_TYPE":0,"CLASSIFICATION_TYPE":"U","NORAD_CAT_ID":65268,"ELEMENT_SET_NO":999,"REV_AT_EPOCH":3270,"BSTAR":1.303669e-5,"MEAN_MOTION_DOT":4.836e-5,"MEAN_MOTION_DDOT":1.857603e-6},{"OBJECT_NAME":"COSMOS 2593","OBJECT_ID":"2025-182C","EPOCH":"2026-03-15T07:10:29.813952","MEAN_MOTION":15.96328189,"ECCENTRICITY":0.00104593,"INCLINATION":96.5933,"RA_OF_ASC_NODE":7.3442,"ARG_OF_PERICENTER":148.1553,"MEAN_ANOMALY":212.036,"EPHEMERIS_TYPE":0,"CLASSIFICATION_TYPE":"U","NORAD_CAT_ID":65269,"ELEMENT_SET_NO":999,"REV_AT_EPOCH":3271,"BSTAR":7.6424968e-5,"MEAN_MOTION_DOT":0.00031203,"MEAN_MOTION_DDOT":2.226109e-6},{"OBJECT_NAME":"COSMOS 2594","OBJECT_ID":"2025-182D","EPOCH":"2026-03-14T02:58:00.277248","MEAN_MOTION":15.96378301,"ECCENTRICITY":0.00088551,"INCLINATION":96.5909,"RA_OF_ASC_NODE":6.1726,"ARG_OF_PERICENTER":143.1415,"MEAN_ANOMALY":217.0474,"EPHEMERIS_TYPE":0,"CLASSIFICATION_TYPE":"U","NORAD_CAT_ID":65270,"ELEMENT_SET_NO":999,"REV_AT_EPOCH":3254,"BSTAR":7.26854e-7,"MEAN_MOTION_DOT":-2.82e-6,"MEAN_MOTION_DDOT":1.849309e-6},{"OBJECT_NAME":"CZ-4B R/B","OBJECT_ID":"2025-300B","EPOCH":"2026-03-15T01:40:30.548064","MEAN_MOTION":16.25652077,"ECCENTRICITY":0.00335625,"INCLINATION":97.5169,"RA_OF_ASC_NODE":161.8346,"ARG_OF_PERICENTER":35.1299,"MEAN_ANOMALY":325.2196,"EPHEMERIS_TYPE":0,"CLASSIFICATION_TYPE":"U","NORAD_CAT_ID":67132,"ELEMENT_SET_NO":999,"REV_AT_EPOCH":1406,"BSTAR":0.00075208405,"MEAN_MOTION_DOT":0.0257549,"MEAN_MOTION_DDOT":2.553846e-6},{"OBJECT_NAME":"SL-4 R/B","OBJECT_ID":"2025-310B","EPOCH":"2026-03-15T02:00:29.246112","MEAN_MOTION":16.19594901,"ECCENTRICITY":0.00764116,"INCLINATION":97.9329,"RA_OF_ASC_NODE":95.0222,"ARG_OF_PERICENTER":139.509,"MEAN_ANOMALY":221.1918,"EPHEMERIS_TYPE":0,"CLASSIFICATION_TYPE":"U","NORAD_CAT_ID":67235,"ELEMENT_SET_NO":999,"REV_AT_EPOCH":1250,"BSTAR":0.00061788715,"MEAN_MOTION_DOT":0.02097807,"MEAN_MOTION_DDOT":2.635617e-6},{"OBJECT_NAME":"ELECTRON KICK STAGE R/B","OBJECT_ID":"2026-019C","EPOCH":"2026-03-15T07:18:18.100224","MEAN_MOTION":16.10236302,"ECCENTRICITY":0.00591089,"INCLINATION":97.3856,"RA_OF_ASC_NODE":202.0567,"ARG_OF_PERICENTER":90.3724,"MEAN_ANOMALY":270.4333,"EPHEMERIS_TYPE":0,"CLASSIFICATION_TYPE":"U","NORAD_CAT_ID":67616,"ELEMENT_SET_NO":999,"REV_AT_EPOCH":695,"BSTAR":0.0019284794,"MEAN_MOTION_DOT":0.02384609,"MEAN_MOTION_DDOT":2.322469e-6},{"OBJECT_NAME":"STARLINK-36618","OBJECT_ID":"2026-033AC","EPOCH":"2026-03-14T22:05:49.557408","MEAN_MOTION":15.91659854,"ECCENTRICITY":0.00026748,"INCLINATION":42.9779,"RA_OF_ASC_NODE":236.5266,"ARG_OF_PERICENTER":289.8116,"MEAN_ANOMALY":70.247,"EPHEMERIS_TYPE":0,"CLASSIFICATION_TYPE":"U","NORAD_CAT_ID":67847,"ELEMENT_SET_NO":999,"REV_AT_EPOCH":548,"BSTAR":0.0012013363,"MEAN_MOTION_DOT":0.00403936,"MEAN_MOTION_DDOT":6.981852e-5},{"OBJECT_NAME":"STARLINK-36335","OBJECT_ID":"2026-040A","EPOCH":"2026-03-15T06:00:00.999648","MEAN_MOTION":15.92083524,"ECCENTRICITY":0.00012488,"INCLINATION":97.2709,"RA_OF_ASC_NODE":22.8938,"ARG_OF_PERICENTER":109.2965,"MEAN_ANOMALY":314.6195,"EPHEMERIS_TYPE":0,"CLASSIFICATION_TYPE":"U","NORAD_CAT_ID":68015,"ELEMENT_SET_NO":999,"REV_AT_EPOCH":326,"BSTAR":-0.0044347244,"MEAN_MOTION_DOT":-0.0145723,"MEAN_MOTION_DDOT":0.00060512968},{"OBJECT_NAME":"STARLINK-36923","OBJECT_ID":"2026-040B","EPOCH":"2026-03-15T06:00:00.999648","MEAN_MOTION":15.92148655,"ECCENTRICITY":0.00012776,"INCLINATION":97.2715,"RA_OF_ASC_NODE":22.8983,"ARG_OF_PERICENTER":96.1541,"MEAN_ANOMALY":336.3055,"EPHEMERIS_TYPE":0,"CLASSIFICATION_TYPE":"U","NORAD_CAT_ID":68016,"ELEMENT_SET_NO":999,"REV_AT_EPOCH":331,"BSTAR":-0.0044642615,"MEAN_MOTION_DOT":-0.01471705,"MEAN_MOTION_DDOT":0.00061670926}]
