STARLINK-30995          
1 58474U 23186B   26073.95717772  .02102812  37643-2  24332-2 0  9998
2 58474  42.9739 185.5122 0019901   3.0665 357.0335 16.08447727129260
INTUITION-1             
1 58565U 23174CW  26074.28460385  .00849328  36621-3  13432-2 0  9991
2 58565  97.3659 171.2645 0004782 267.9023  92.1710 16.03897123131775
STARLINK-31145          
1 58768U 24011D   26074.12026645  .00882079  41897-3  11781-2 0  9993
2 58768  53.1186 334.0904 0008172 159.5192 200.6171 16.06013218121293
SENTRY                  
1 59140U 24043AU  26074.15148258  .00742585  26049-3  13822-2 0  9998
2 59140  97.5276 229.1652 0004792 266.9421  93.1309 16.01080816113939
OBJECT B                
1 59678U 24085B   26073.05313317  .01193912  86695-3  14511-2 0  9992
2 59678  97.3337 165.9181 0014792 295.9669  64.0090 16.08100851104115
OBJECT D                
1 59813U 24095D   26070.44840456  .01128541  68436-3  19140-2 0  9995
2 59813  97.5273 174.9254 0007283 274.6865  85.3582 16.02763372101179
COSMOS 2591             
1 65267U 25182A   26073.95418213  .00111781  66251-5  26910-3 0  9990
2 65267  96.5871   7.0861 0009583 142.9225 217.2717 15.96418188 32661
COSMOS 2592             
1 65268U 25182B   26074.22058661  .00004836  18576-5  13037-4 0  9995
2 65268  96.5869   7.2984 0009138 141.5909 218.6021 15.96346413 32706
COSMOS 2593             
1 65269U 25182C   26074.29895618  .00031203  22261-5  76425-4 0  9998
2 65269  96.5933   7.3442 0010459 148.1553 212.0360 15.96328189 32710
COSMOS 2594             
1 65270U 25182D   26073.12361432 -.00000282  18493-5  72685-6 0  9995
2 65270  96.5909   6.1726 0008855 143.1415 217.0474 15.96378301 32549
CZ-4B R/B               
1 67132U 25300B   26074.06979801  .02575490  25538-5  75208-3 0  9993
2 67132  97.5169 161.8346 0033562  35.1299 325.2196 16.25652077 14065
SL-4 R/B                
1 67235U 25310B   26074.08367183  .02097807  26356-5  61789-3 0  9993
2 67235  97.9329  95.0222 0076411 139.5090 221.1918 16.19594901 12507
ELECTRON KICK STAGE R/B 
1 67616U 26019C   26074.30437616  .02384609  23225-5  19285-2 0  9991
2 67616  97.3856 202.0567 0059108  90.3724 270.4333 16.10236302  6952
STARLINK-36618          
1 67847U 26033AC  26073.92071247  .00403936  69819-4  12013-2 0  9997
2 67847  42.9779 236.5266 0002674 289.8116  70.2470 15.91659854  5486
STARLINK-36335          
1 68015U 26040A   26074.25001157 -.01457230  60513-3 -44347-2 0  9998
2 68015  97.2709  22.8938 0001248 109.2965 314.6195 15.92083524  3264
STARLINK-36923          
1 68016U 26040B   26074.25001157 -.01471705  61671-3 -44643-2 0  9997
2 68016  97.2715  22.8983 0001277  96.1541 336.3055 15.92148655  3317
